{
    "links": {
        "self": "http://www.neowsapp.com/rest/v1/neo/3552779?api_key=iIulBulltgU6a56xZRHN4H3l9WmuAYTsLGpBGhQ2"
    },
    "id": "3552779",
    "neo_reference_id": "3552779",
    "name": "(2010 XH3)",
    "designation": "2010 XH3",
    "nasa_jpl_url": "http://ssd.jpl.nasa.gov/sbdb.cgi?sstr=3552779",
    "absolute_magnitude_h": 23.7,
    "estimated_diameter": {
        "kilometers": {
            "estimated_diameter_min": 0.0483676488,
            "estimated_diameter_max": 0.1081533507
        },
        "meters": {
            "estimated_diameter_min": 48.3676488219,
            "estimated_diameter_max": 108.1533506775
        },
        "miles": {
            "estimated_diameter_min": 0.0300542543,
            "estimated_diameter_max": 0.0672033557
        },
        "feet": {
            "estimated_diameter_min": 158.6865169607,
            "estimated_diameter_max": 354.8338390368
        }
    },
    "is_potentially_hazardous_asteroid": false,
    "close_approach_data": [
        {
            "close_approach_date": "2010-12-03",
            "close_approach_date_full": "2010-Dec-03 10:44",
            "epoch_date_close_approach": 1291373040000,
            "relative_velocity": {
                "kilometers_per_second": "8.7218956248",
                "kilometers_per_hour": "31398.8242491626",
                "miles_per_hour": "19510.0083230422"
            },
            "miss_distance": {
                "astronomical": "0.1033559698",
                "lunar": "40.2054722522",
                "kilometers": "15461832.933864326",
                "miles": "9607537.4776706588"
            },
            "orbiting_body": "Earth"
        },
        {
            "close_approach_date": "2015-11-27",
            "close_approach_date_full": "2015-Nov-27 02:20",
            "epoch_date_close_approach": 1448590800000,
            "relative_velocity": {
                "kilometers_per_second": "10.2169793224",
                "kilometers_per_hour": "36781.1255607959",
                "miles_per_hour": "22854.3610463734"
            },
            "miss_distance": {
                "astronomical": "0.2047416828",
                "lunar": "79.6445146092",
                "kilometers": "30628919.647095636",
                "miles": "19031928.1464703368"
            },
            "orbiting_body": "Earth"
        }
    ],
    "orbital_data": {
        "orbit_id": "7",
        "orbit_determination_date": "2017-04-06 08:55:25",
        "first_observation_date": "2010-12-02",
        "last_observation_date": "2010-12-10",
        "data_arc_in_days": 8,
        "observations_used": 30,
        "orbit_uncertainty": "8",
        "minimum_orbit_intersection": ".100455",
        "jupiter_tisserand_invariant": "5.368",
        "epoch_osculation": "2455536.5",
        "eccentricity": ".07726253153675247",
        "semi_major_axis": "1.165711818513962",
        "inclination": "16.68732781202453",
        "ascending_node_longitude": "252.9358161279864",
        "orbital_period": "459.7113498572163",
        "perihelion_distance": "1.075645972373262",
        "perihelion_argument": "148.3123385478775",
        "aphelion_distance": "1.255777664654662",
        "perihelion_time": "2455499.975769909087",
        "mean_anomaly": "28.60212791529423",
        "mean_motion": ".7831000912024771",
        "equinox": "J2000",
        "orbit_class": {
            "orbit_class_type": "AMO",
            "orbit_class_description": "Near-Earth asteroid orbits similar to that of 1221 Amor",
            "orbit_class_range": "1.017 AU < q (perihelion) < 1.3 AU"
        }
    },
    "is_sentry_object": false
}